start=new Date('2023-01-07T00:00:00.000Z').valueOf();
sats=[{"MEAN_MOTION_DOT":"-0.00005564","MEAN_MOTION_DDOT":"0.0000000000000","TLE_LINE1":"1 48119U 21027AD  23006.84495317 -.00005564  00000-0 -35513-3 0  9999","ARG_OF_PERICENTER":"47.3891","MEAN_ELEMENT_THEORY":"SGP4","RCS_SIZE":"LARGE","TLE_LINE2":"2 48119  53.0544 309.3910 0002136  47.3891 312.7278 15.06377845 98176","EPHEMERIS_TYPE":"0","RA_OF_ASC_NODE":"309.3910","LAUNCH_DATE":"2021-04-07","PERIOD":"95.594","PERIAPSIS":"545.802","REF_FRAME":"TEME","TIME_SYSTEM":"UTC","NORAD_CAT_ID":"48119","APOAPSIS":"548.761","DECAY_DATE":null,"OBJECT_TYPE":"PAYLOAD","SITE":"AFETR","MEAN_MOTION":"15.06377845","OBJECT_ID":"2021-027AD","FILE":"3734255","INCLINATION":"53.0544","REV_AT_EPOCH":"9817","COUNTRY_CODE":"US","GP_ID":"222341587","MEAN_ANOMALY":"312.7278","CLASSIFICATION_TYPE":"U","ELEMENT_SET_NO":"999","ECCENTRICITY":"0.00021360","EPOCH":"2023-01-06T20:16:43.953888","BSTAR":"-0.00035513000000","OBJECT_NAME":"STARLINK-2459","SEMIMAJOR_AXIS":"6925.416","CENTER_NAME":"EARTH"},{"EPHEMERIS_TYPE":"0","TLE_LINE2":"2 48120  53.0543 329.3706 0001898  47.0353 313.0795 15.06395563 97912","RCS_SIZE":"LARGE","MEAN_ELEMENT_THEORY":"SGP4","ARG_OF_PERICENTER":"47.0353","TLE_LINE1":"1 48120U 21027AE  23006.85142304 -.00001719  00000-0 -96511-4 0  9991","MEAN_MOTION_DDOT":"0.0000000000000","MEAN_MOTION_DOT":"-0.00001719","REV_AT_EPOCH":"9791","COUNTRY_CODE":"US","INCLINATION":"53.0543","FILE":"3734255","OBJECT_ID":"2021-027AE","MEAN_MOTION":"15.06395563","SITE":"AFETR","OBJECT_TYPE":"PAYLOAD","DECAY_DATE":null,"APOAPSIS":"548.542","NORAD_CAT_ID":"48120","TIME_SYSTEM":"UTC","REF_FRAME":"TEME","PERIAPSIS":"545.913","LAUNCH_DATE":"2021-04-07","PERIOD":"95.592","RA_OF_ASC_NODE":"329.3706","EPOCH":"2023-01-06T20:26:02.950656","ECCENTRICITY":"0.00018980","ELEMENT_SET_NO":"999","CLASSIFICATION_TYPE":"U","MEAN_ANOMALY":"313.0795","GP_ID":"222341837","CENTER_NAME":"EARTH","SEMIMAJOR_AXIS":"6925.362","OBJECT_NAME":"STARLINK-2460","BSTAR":"-0.00009651100000"},{"BSTAR":"0.00001960700000","OBJECT_NAME":"STARLINK-2462","SEMIMAJOR_AXIS":"6925.368","CENTER_NAME":"EARTH","GP_ID":"222343088","MEAN_ANOMALY":"308.9098","CLASSIFICATION_TYPE":"U","ELEMENT_SET_NO":"999","ECCENTRICITY":"0.00018690","EPOCH":"2023-01-06T21:20:26.991456","RA_OF_ASC_NODE":"319.1975","LAUNCH_DATE":"2021-04-07","PERIOD":"95.593","PERIAPSIS":"545.939","REF_FRAME":"TEME","TIME_SYSTEM":"UTC","NORAD_CAT_ID":"48121","APOAPSIS":"548.528","DECAY_DATE":null,"OBJECT_TYPE":"PAYLOAD","SITE":"AFETR","MEAN_MOTION":"15.06393518","OBJECT_ID":"2021-027AF","FILE":"3734255","INCLINATION":"53.0557","REV_AT_EPOCH":"9804","COUNTRY_CODE":"US","MEAN_MOTION_DOT":"0.00000010","TLE_LINE1":"1 48121U 21027AF  23006.88920129  .00000010  00000-0  19607-4 0  9996","MEAN_MOTION_DDOT":"0.0000000000000","ARG_OF_PERICENTER":"51.2058","MEAN_ELEMENT_THEORY":"SGP4","RCS_SIZE":"LARGE","TLE_LINE2":"2 48121  53.0557 319.1975 0001869  51.2058 308.9098 15.06393518 98042","EPHEMERIS_TYPE":"0"},{"MEAN_ANOMALY":"314.9236","GP_ID":"222342839","ECCENTRICITY":"0.00019660","ELEMENT_SET_NO":"999","CLASSIFICATION_TYPE":"U","EPOCH":"2023-01-06T21:18:27.190944","BSTAR":"0.00176480000000","SEMIMAJOR_AXIS":"6925.363","OBJECT_NAME":"STARLINK-2463","CENTER_NAME":"EARTH","MEAN_MOTION_DDOT":"0.0000000000000","TLE_LINE1":"1 48122U 21027AG  23006.88781471  .00026100  00000-0  17648-2 0  9991","MEAN_MOTION_DOT":"0.00026100","MEAN_ELEMENT_THEORY":"SGP4","ARG_OF_PERICENTER":"45.1912","EPHEMERIS_TYPE":"0","TLE_LINE2":"2 48122  53.0549 314.1648 0001966  45.1912 314.9236 15.06395245 98124","RCS_SIZE":"LARGE","REF_FRAME":"TEME","PERIAPSIS":"545.867","LAUNCH_DATE":"2021-04-07","PERIOD":"95.592","RA_OF_ASC_NODE":"314.1648","APOAPSIS":"548.590","NORAD_CAT_ID":"48122","TIME_SYSTEM":"UTC","OBJECT_ID":"2021-027AG","OBJECT_TYPE":"PAYLOAD","SITE":"AFETR","MEAN_MOTION":"15.06395245","DECAY_DATE":null,"COUNTRY_CODE":"US","REV_AT_EPOCH":"9812","INCLINATION":"53.0549","FILE":"3734255"},{"REF_FRAME":"TEME","PERIAPSIS":"546.018","LAUNCH_DATE":"2021-04-07","PERIOD":"95.593","RA_OF_ASC_NODE":"309.4614","APOAPSIS":"548.522","NORAD_CAT_ID":"48123","TIME_SYSTEM":"UTC","OBJECT_ID":"2021-027AH","SITE":"AFETR","OBJECT_TYPE":"PAYLOAD","MEAN_MOTION":"15.06381638","DECAY_DATE":null,"COUNTRY_CODE":"US","REV_AT_EPOCH":"9818","INCLINATION":"53.0568","FILE":"3734255","MEAN_MOTION_DDOT":"0.0000000000000","TLE_LINE1":"1 48123U 21027AH  23006.83115745 -.00005688  00000-0 -36346-3 0  9999","MEAN_MOTION_DOT":"-0.00005688","MEAN_ELEMENT_THEORY":"SGP4","ARG_OF_PERICENTER":"38.1134","EPHEMERIS_TYPE":"0","TLE_LINE2":"2 48123  53.0568 309.4614 0001808  38.1134 321.9982 15.06381638 98182","RCS_SIZE":"LARGE","BSTAR":"-0.00036346000000","SEMIMAJOR_AXIS":"6925.405","OBJECT_NAME":"STARLINK-2464","CENTER_NAME":"EARTH","MEAN_ANOMALY":"321.9982","GP_ID":"222342087","ECCENTRICITY":"0.00018080","ELEMENT_SET_NO":"999","CLASSIFICATION_TYPE":"U","EPOCH":"2023-01-06T19:56:52.003680"},{"BSTAR":"-0.00017000000000","CENTER_NAME":"EARTH","OBJECT_NAME":"STARLINK-2465","SEMIMAJOR_AXIS":"6925.362","GP_ID":"222342337","MEAN_ANOMALY":"320.1918","EPOCH":"2023-01-06T21:31:04.110240","CLASSIFICATION_TYPE":"U","ELEMENT_SET_NO":"999","ECCENTRICITY":"0.00022980","TIME_SYSTEM":"UTC","NORAD_CAT_ID":"48124","APOAPSIS":"548.819","RA_OF_ASC_NODE":"319.1510","LAUNCH_DATE":"2021-04-07","PERIOD":"95.592","PERIAPSIS":"545.636","REF_FRAME":"TEME","FILE":"3734255","INCLINATION":"53.0550","REV_AT_EPOCH":"9804","COUNTRY_CODE":"US","DECAY_DATE":null,"MEAN_MOTION":"15.06395512","SITE":"AFETR","OBJECT_TYPE":"PAYLOAD","OBJECT_ID":"2021-027AJ","MEAN_MOTION_DOT":"-0.00002813","TLE_LINE1":"1 48124U 21027AJ  23006.89657535 -.00002813  00000-0 -17000-3 0  9997","MEAN_MOTION_DDOT":"0.0000000000000","RCS_SIZE":"LARGE","TLE_LINE2":"2 48124  53.0550 319.1510 0002298  39.9239 320.1918 15.06395512 98047","EPHEMERIS_TYPE":"0","ARG_OF_PERICENTER":"39.9239","MEAN_ELEMENT_THEORY":"SGP4"},{"MEAN_ANOMALY":"331.7393","GP_ID":"222342589","EPOCH":"2023-01-06T21:51:01.107936","ECCENTRICITY":"0.00021630","CLASSIFICATION_TYPE":"U","ELEMENT_SET_NO":"999","BSTAR":"-0.00011842000000","CENTER_NAME":"EARTH","SEMIMAJOR_AXIS":"6925.375","OBJECT_NAME":"STARLINK-2466","MEAN_MOTION_DOT":"-0.00002045","MEAN_MOTION_DDOT":"0.0000000000000","TLE_LINE1":"1 48125U 21027AK  23006.91042949 -.00002045  00000-0 -11842-3 0  9993","TLE_LINE2":"2 48125  53.0554 329.3464 0002163  28.3714 331.7393 15.06391244 97912","EPHEMERIS_TYPE":"0","RCS_SIZE":"LARGE","MEAN_ELEMENT_THEORY":"SGP4","ARG_OF_PERICENTER":"28.3714","NORAD_CAT_ID":"48125","APOAPSIS":"548.738","TIME_SYSTEM":"UTC","PERIAPSIS":"545.742","REF_FRAME":"TEME","RA_OF_ASC_NODE":"329.3464","LAUNCH_DATE":"2021-04-07","PERIOD":"95.593","REV_AT_EPOCH":"9791","COUNTRY_CODE":"US","FILE":"3734255","INCLINATION":"53.0554","OBJECT_ID":"2021-027AK","DECAY_DATE":null,"MEAN_MOTION":"15.06391244","SITE":"AFETR","OBJECT_TYPE":"PAYLOAD"},{"MEAN_ANOMALY":"310.0796","GP_ID":"222343339","EPOCH":"2023-01-06T20:44:38.444640","ECCENTRICITY":"0.00018010","CLASSIFICATION_TYPE":"U","ELEMENT_SET_NO":"999","BSTAR":"0.00165190000000","CENTER_NAME":"EARTH","SEMIMAJOR_AXIS":"6925.405","OBJECT_NAME":"STARLINK-2467","MEAN_MOTION_DOT":"0.00024397","MEAN_MOTION_DDOT":"0.0000000000000","TLE_LINE1":"1 48126U 21027AL  23006.86433385  .00024397  00000-0  16519-2 0  9993","TLE_LINE2":"2 48126  53.0544 309.3117 0001801  50.0351 310.0796 15.06381736 98195","EPHEMERIS_TYPE":"0","RCS_SIZE":"LARGE","MEAN_ELEMENT_THEORY":"SGP4","ARG_OF_PERICENTER":"50.0351","NORAD_CAT_ID":"48126","APOAPSIS":"548.517","TIME_SYSTEM":"UTC","PERIAPSIS":"546.022","REF_FRAME":"TEME","RA_OF_ASC_NODE":"309.3117","LAUNCH_DATE":"2021-04-07","PERIOD":"95.593","REV_AT_EPOCH":"9819","COUNTRY_CODE":"US","FILE":"3734255","INCLINATION":"53.0544","OBJECT_ID":"2021-027AL","DECAY_DATE":null,"SITE":"AFETR","OBJECT_TYPE":"PAYLOAD","MEAN_MOTION":"15.06381736"},{"INCLINATION":"53.0546","FILE":"3734255","REV_AT_EPOCH":"9791","COUNTRY_CODE":"US","MEAN_MOTION":"15.06380569","SITE":"AFETR","OBJECT_TYPE":"PAYLOAD","DECAY_DATE":null,"OBJECT_ID":"2021-027AM","TIME_SYSTEM":"UTC","APOAPSIS":"548.584","NORAD_CAT_ID":"48127","LAUNCH_DATE":"2021-04-07","PERIOD":"95.593","RA_OF_ASC_NODE":"329.0518","REF_FRAME":"TEME","PERIAPSIS":"545.962","RCS_SIZE":"LARGE","EPHEMERIS_TYPE":"0","TLE_LINE2":"2 48127  53.0546 329.0518 0001893  33.2446 326.8662 15.06380569 97910","ARG_OF_PERICENTER":"33.2446","MEAN_ELEMENT_THEORY":"SGP4","MEAN_MOTION_DDOT":"0.0000000000000","TLE_LINE1":"1 48127U 21027AM  23006.92146163  .00006995  00000-0  48828-3 0  9999","MEAN_MOTION_DOT":"0.00006995","CENTER_NAME":"EARTH","OBJECT_NAME":"STARLINK-2468","SEMIMAJOR_AXIS":"6925.408","BSTAR":"0.00048828000000","EPOCH":"2023-01-06T22:06:54.284832","ELEMENT_SET_NO":"999","CLASSIFICATION_TYPE":"U","ECCENTRICITY":"0.00018930","GP_ID":"222341588","MEAN_ANOMALY":"326.8662"},{"MEAN_ELEMENT_THEORY":"SGP4","ARG_OF_PERICENTER":"96.7762","TLE_LINE2":"2 48128  53.0524 259.5181 0001261  96.7762 263.3371 15.06383414 98874","EPHEMERIS_TYPE":"0","RCS_SIZE":"LARGE","MEAN_MOTION_DOT":"-0.00001941","MEAN_MOTION_DDOT":"0.0000000000000","TLE_LINE1":"1 48128U 21027AN  23006.83577811 -.00001941  00000-0 -11147-3 0  9990","OBJECT_ID":"2021-027AN","DECAY_DATE":null,"MEAN_MOTION":"15.06383414","SITE":"AFETR","OBJECT_TYPE":"PAYLOAD","REV_AT_EPOCH":"9887","COUNTRY_CODE":"US","FILE":"3734255","INCLINATION":"53.0524","PERIAPSIS":"546.391","REF_FRAME":"TEME","RA_OF_ASC_NODE":"259.5181","LAUNCH_DATE":"2021-04-07","PERIOD":"95.593","NORAD_CAT_ID":"48128","APOAPSIS":"548.138","TIME_SYSTEM":"UTC","ECCENTRICITY":"0.00012610","CLASSIFICATION_TYPE":"U","ELEMENT_SET_NO":"999","EPOCH":"2023-01-06T20:03:31.228704","MEAN_ANOMALY":"263.3371","GP_ID":"222341838","SEMIMAJOR_AXIS":"6925.399","OBJECT_NAME":"STARLINK-2469","CENTER_NAME":"EARTH","BSTAR":"-0.00011147000000"}];
